{
    "links": {
        "self": "http://www.neowsapp.com/rest/v1/neo/3719186?api_key=iIulBulltgU6a56xZRHN4H3l9WmuAYTsLGpBGhQ2"
    },
    "id": "3719186",
    "neo_reference_id": "3719186",
    "name": "(2015 JG1)",
    "designation": "2015 JG1",
    "nasa_jpl_url": "http://ssd.jpl.nasa.gov/sbdb.cgi?sstr=3719186",
    "absolute_magnitude_h": 23.1,
    "estimated_diameter": {
        "kilometers": {
            "estimated_diameter_min": 0.063760979,
            "estimated_diameter_max": 0.1425738833
        },
        "meters": {
            "estimated_diameter_min": 63.7609789875,
            "estimated_diameter_max": 142.5738833281
        },
        "miles": {
            "estimated_diameter_min": 0.0396192233,
            "estimated_diameter_max": 0.0885912765
        },
        "feet": {
            "estimated_diameter_min": 209.1895703015,
            "estimated_diameter_max": 467.7620993781
        }
    },
    "is_potentially_hazardous_asteroid": false,
    "close_approach_data": [
        {
            "close_approach_date": "2015-05-11",
            "close_approach_date_full": "2015-May-11 14:13",
            "epoch_date_close_approach": 1431353580000,
            "relative_velocity": {
                "kilometers_per_second": "18.277807304",
                "kilometers_per_hour": "65800.1062942319",
                "miles_per_hour": "40885.6271582131"
            },
            "miss_distance": {
                "astronomical": "0.1000235791",
                "lunar": "38.9091722699",
                "kilometers": "14963314.383136517",
                "miles": "9297772.4142452546"
            },
            "orbiting_body": "Earth"
        }
    ],
    "orbital_data": {
        "orbit_id": "7",
        "orbit_determination_date": "2017-04-06 08:33:49",
        "first_observation_date": "2015-05-12",
        "last_observation_date": "2015-05-18",
        "data_arc_in_days": 6,
        "observations_used": 71,
        "orbit_uncertainty": "8",
        "minimum_orbit_intersection": ".099527",
        "jupiter_tisserand_invariant": "4.013",
        "epoch_osculation": "2457156.5",
        "eccentricity": ".3428580580812444",
        "semi_major_axis": "1.66369199889783",
        "inclination": "33.59241032569387",
        "ascending_node_longitude": "51.73005904149979",
        "orbital_period": "783.804619692027",
        "perihelion_distance": "1.093281790910416",
        "perihelion_argument": "159.7141298096023",
        "aphelion_distance": "2.234102206885243",
        "perihelion_time": "2457134.705243733428",
        "mean_anomaly": "10.01029090521158",
        "mean_motion": ".4592981349630874",
        "equinox": "J2000",
        "orbit_class": {
            "orbit_class_type": "AMO",
            "orbit_class_description": "Near-Earth asteroid orbits similar to that of 1221 Amor",
            "orbit_class_range": "1.017 AU < q (perihelion) < 1.3 AU"
        }
    },
    "is_sentry_object": false
}